BEIDOU-3 M25 (C47)      
1 61186U 24168B   26062.40841492 -.00000058  00000+0  00000+0 0  9993
2 61186  54.5666 305.9191 0004276 318.3720 220.5115  1.86230084  9813
BEIDOU-3 M27 (C49)      
1 61187U 24168C   26063.08358616 -.00000062  00000+0  00000+0 0  9995
2 61187  54.5615 305.8790 0002971  19.9023  26.6369  1.86230271  7308
